******************************************************************************* Revised: Apr 12, 2013                Saturn                                699  PHYSICAL DATA (updated 2009-May-26):  Mass (10^26 kg)       = 5.68319         Density (g/cm^3)       =  0.687+-.001  Equat. radius (1 bar) = 60268+-4 km     Polar radius (km)      = 54364+-10  Volumetric mean radius= 58232+-6 km     Flattening             =  0.09796  Rotation period       = 10h 39m 22.4s   Rot. rate(10^-4 rad/s) =  1.63785   m = w^2a^3/GM         =  0.15481        Hydrostatic flat., fh  =  0.09829  Inferred rot. period  = 10.61+-0.02 hr  ks = 3*J2/m            =  0.317  Mom. of inert. I/MRo^2=  0.210          I/MRo^2 (upper bound)  =  0.231   Rocky core mass (Mc/M)=  0.1027         Y factor (He/H ratio)  =    GM (km^3/s^2)         = 37931207.8      GM 1-sigma (km^3/s^2)  = +- 98  Equ. grav, ge (m/s^2) = 10.44           Pol. grav, gp (m/s^2)  = 12.14+-0.01  Geometric albedo      =  0.47           Visual magnitude V(1,0)= -8.88  Vis. mag. (opposition)= +0.67           Obliquity to orbit     = 26.73 deg  Sidereal orbit period = 29.447498 yr    Sidereal orbit period  = 10755.698 d  Mean daily motion     = 0.0334979 deg/d Mean orbit velocity    =  9.6624 km/s  Atmos. temp. (1 bar)  = 134+-4 K        Heat flow/mass (x10^7) = 15 erg/gm*s  Planetary Solar Const =  15.04 W/m^2    Dipole tilt/offset     = 0.0deg/0.0Rp   Escape velocity (km/s)=  35.5           Mag.dip.mom(gauss-Rp^3)= 0.21  Aroche(ice)/Rp        =  2.71           Hill's sphere rad. Rp  = 1100*******************************************************************************  *******************************************************************************Ephemeris / WWW_USER Thu Dec 19 05:18:26 2013 Pasadena, USA      / Horizons    *******************************************************************************Target body name: Saturn (699)                    {source: SAT359}Center body name: Solar System Barycenter (0)     {source: DE-0431LE-0431}Center-site name: BODY CENTER*******************************************************************************Start time      : A.D. 2013-Jan-01 00:00:00.0000 CT Stop  time      : A.D. 2014-Jan-01 00:00:00.0000 CT Step-size       : 1 calendar months*******************************************************************************Center geodetic : 0.00000000,0.00000000,0.0000000 {E-lon(deg),Lat(deg),Alt(km)}Center cylindric: 0.00000000,0.00000000,0.0000000 {E-lon(deg),Dxy(km),Dz(km)}Center radii    : (undefined)                                                  Output units    : AU-D                                                         Output format   : 02Reference frame : ICRF/J2000.0                                                 Output type     : GEOMETRIC cartesian statesCoordinate systm: Ecliptic and Mean Equinox of Reference Epoch                 *******************************************************************************JDCT ,   , X, Y, Z, VX, VY, VZ,*******************************************************************************$$SOE2456293.500000000, A.D. 2013-Jan-01 00:00:00.0000, -8.082220043848386E+00, -5.517143748523619E+00,  4.175816097350819E-01,  2.843407296480526E-03, -4.621127122552935E-03, -3.269153134418736E-05,2456324.500000000, A.D. 2013-Feb-01 00:00:00.0000, -7.992877553962400E+00, -5.659547358574629E+00,  4.165024129102453E-01,  2.921728434079803E-03, -4.566787520874751E-03, -3.664880515069828E-05,2456352.500000000, A.D. 2013-Mar-01 00:00:00.0000, -7.910103556233921E+00, -5.786699242278348E+00,  4.154183077566275E-01,  2.990568091539839E-03, -4.516432976484415E-03, -4.021147942811917E-05,2456383.500000000, A.D. 2013-Apr-01 00:00:00.0000, -7.816191497152106E+00, -5.925815178189151E+00,  4.140999276332458E-01,  3.066786279401372E-03, -4.459332918472600E-03, -4.432811078424428E-05,2456413.500000000, A.D. 2013-May-01 00:00:00.0000, -7.723069142202728E+00, -6.058747228040959E+00,  4.127055835333337E-01,  3.139668054249182E-03, -4.402651440171379E-03, -4.845561814467728E-05,2456444.500000000, A.D. 2013-Jun-01 00:00:00.0000, -7.624563077359308E+00, -6.194321393468273E+00,  4.111430810156352E-01,  3.214027570462651E-03, -4.343219792828213E-03, -5.254949095610973E-05,2456474.500000000, A.D. 2013-Jul-01 00:00:00.0000, -7.527060421615567E+00, -6.323757285113941E+00,  4.095140959736597E-01,  3.285188640683816E-03, -4.284542046527362E-03, -5.654602552022580E-05,2456505.500000000, A.D. 2013-Aug-01 00:00:00.0000, -7.424096121823669E+00, -6.455648379845121E+00,  4.077102929889440E-01,  3.357439599453895E-03, -4.223013354708932E-03, -6.052030139714151E-05,2456536.500000000, A.D. 2013-Sep-01 00:00:00.0000, -7.318918712872115E+00, -6.585615003611199E+00,  4.057848461031505E-01,  3.428479163998564E-03, -4.160461473060073E-03, -6.440700769802150E-05,2456566.500000000, A.D. 2013-Oct-01 00:00:00.0000, -7.215062091686113E+00, -6.709524904911039E+00,  4.038068177552799E-01,  3.496233988004368E-03, -4.099211355314338E-03, -6.799057163686566E-05,2456597.500000000, A.D. 2013-Nov-01 00:00:00.0000, -7.105636325508272E+00, -6.835605125662657E+00,  4.016445036025081E-01,  3.564777592390364E-03, -4.034676781186968E-03, -7.172721234488317E-05,2456627.500000000, A.D. 2013-Dec-01 00:00:00.0000, -6.997736995095944E+00, -6.955690401520743E+00,  3.994383754196679E-01,  3.629707925019417E-03, -3.971419753813665E-03, -7.518552693229204E-05,2456658.500000000, A.D. 2014-Jan-01 00:00:00.0000, -6.884205705778111E+00, -7.077756036949086E+00,  3.970425522810994E-01,  3.695633540813825E-03, -3.904735128551027E-03, -7.889244629876334E-05,$$EOE*******************************************************************************Coordinate system description:  Ecliptic and Mean Equinox of Reference Epoch    Reference epoch: J2000.0    xy-plane: plane of the Earth's orbit at the reference epoch    x-axis  : out along ascending node of instantaneous plane of the Earth's              orbit and the Earth's mean equator at the reference epoch    z-axis  : perpendicular to the xy-plane in the directional (+ or -) sense              of Earth's north pole at the reference epoch.Symbol meaning [1 au=149597870.700 km, 1 day=86400.0 s]:    JDCT     Epoch Julian Date, Coordinate Time      X      x-component of position vector (AU)                                     Y      y-component of position vector (AU)                                     Z      z-component of position vector (AU)                                     VX     x-component of velocity vector (AU/day)                                 VY     y-component of velocity vector (AU/day)                                 VZ     z-component of velocity vector (AU/day)                           Geometric states/elements have no aberration corrections applied. Computations by ...     Solar System Dynamics Group, Horizons On-Line Ephemeris System     4800 Oak Grove Drive, Jet Propulsion Laboratory     Pasadena, CA  91109   USA     Information: http://ssd.jpl.nasa.gov/     Connect    : telnet://ssd.jpl.nasa.gov:6775  (via browser)                  telnet ssd.jpl.nasa.gov 6775    (via command-line)     Author     : Jon.Giorgini@jpl.nasa.gov*******************************************************************************